[{"OBJECT_NAME":"OBJECT Y","OBJECT_ID":"2023-085Y","EPOCH":"2026-03-09T22:38:54.992256","MEAN_MOTION":15.32500153,"ECCENTRICITY":0.00063298,"INCLINATION":97.4849,"RA_OF_ASC_NODE":180.8653,"ARG_OF_PERICENTER":67.4431,"MEAN_ANOMALY":292.748,"EPHEMERIS_TYPE":0,"CLASSIFICATION_TYPE":"U","NORAD_CAT_ID":57026,"ELEMENT_SET_NO":999,"REV_AT_EPOCH":15160,"BSTAR":0.00065512761,"MEAN_MOTION_DOT":0.00020524,"MEAN_MOTION_DDOT":0},{"OBJECT_NAME":"COSMOS 397 DEB","OBJECT_ID":"1971-015AP","EPOCH":"2026-03-09T23:21:39.504096","MEAN_MOTION":15.2848821,"ECCENTRICITY":0.00875373,"INCLINATION":65.5189,"RA_OF_ASC_NODE":36.1077,"ARG_OF_PERICENTER":68.9592,"MEAN_ANOMALY":292.0879,"EPHEMERIS_TYPE":0,"CLASSIFICATION_TYPE":"U","NORAD_CAT_ID":5192,"ELEMENT_SET_NO":999,"REV_AT_EPOCH":75637,"BSTAR":0.0038413279,"MEAN_MOTION_DOT":0.00121672,"MEAN_MOTION_DDOT":0}]
